ONEWEB-0264             
1 48982U 21060R   24012.60377879  .00000078  00000+0  16958-3 0  9992
2 48982  87.9058  45.2414 0001863  98.6652 261.4690 13.16593963122935
ONEWEB-0266             
1 48984U 21060T   24012.54916376  .00000087  00000+0  19379-3 0  9998
2 48984  87.9053  45.2331 0001813  88.1584 271.9755 13.16601882122919
ONEWEB-0267             
1 48985U 21060U   24012.56022537  .00000022  00000+0  24790-4 0  9991
2 48985  87.9053  45.2321 0002042 107.2583 252.8771 13.16595827122924
ONEWEB-0268             
1 48986U 21060V   24012.60456399  .00000126  00000+0  29560-3 0  9998
2 48986  87.9054  45.2292 0001781 102.5874 257.5456 13.16592640123195
ONEWEB-0269             
1 48987U 21060W   24012.58557094  .00000008  00000+0 -13548-4 0  9990
2 48987  87.9046  45.2549 0001761  95.1085 265.0247 13.16593656122965
ONEWEB-0270             
1 48988U 21060X   24012.60298321 -.00003793  00000+0 -99571-2 0  9992
2 48988  87.9050  45.2398 0002400  99.0223 261.1179 13.16611316123002
ONEWEB-0271             
1 48989U 21060Y   24012.59032014  .00000028  00000+0  38931-4 0  9997
2 48989  87.9049  45.2175 0002149 104.7254 255.4115 13.16586120123002
ONEWEB-0272             
1 48990U 21060Z   24012.53649411  .00000231  00000+0  57061-3 0  9998
2 48990  87.9046  45.2547 0002226 101.9342 258.2038 13.16589812122945
